{
  "type": "FeatureCollection",
  "bbox": [
    76.78813982537156,
    22.40795538545958,
    76.81752424756343,
    22.43812283807258
  ],
  "features": [
    {
      "type": "Feature",
      "properties": {
        "OBJECTID_1": "128",
        "Range": "HANDIA",
        "LGL_Status": "RF",
        "COMPT_NO": "278",
        "block_12": "JOGA",
        "Shape_Leng": "10351.442017",
        "AREA_HA": "589.361535",
        "NEW_WC": "SCI",
        "B_TYPE": "",
        "N_BEAT": "JOGA",
        "N_CRICLE": "JOGA",
        "NEW_FS_N": "NARMADA",
        "BAMBOO_FS_": "",
        "COMPT": "278",
        "source_sha256": "44eb2168008f5e9654d64cce4bfba9b9a3081d509ceb663b340f779c66c34250",
        "source_url": "https://mpforest.gov.in/publicdomain/Workingplanlibrary/WPLuploaddata//27111.kml",
        "status": "official-source compartment candidate; pending spatial/current-boundary review",
        "current_boundary_verified": false,
        "pilot_approved": false,
        "forest_ground_truth": false
      },
      "geometry": {
        "type": "MultiPolygon",
        "coordinates": [
          [
            [
              [
                76.8128534038417,
                22.43501733841393
              ],
              [
                76.81147067452922,
                22.43600270274696
              ],
              [
                76.80912040984252,
                22.43812283807258
              ],
              [
                76.80866498830939,
                22.43757222140882
              ],
              [
                76.80789758419137,
                22.43664440331541
              ],
              [
                76.80676506010657,
                22.43597058030827
              ],
              [
                76.80534986554677,
                22.43512857091903
              ],
              [
                76.804260755159,
                22.4345712091102
              ],
              [
                76.80317194102666,
                22.43398900270618
              ],
              [
                76.80210956632115,
                22.43343189432789
              ],
              [
                76.80059473275365,
                22.43272120975486
              ],
              [
                76.79918822403992,
                22.4318873939955
              ],
              [
                76.79786072988736,
                22.43115372017635
              ],
              [
                76.79698743287746,
                22.43042459153758
              ],
              [
                76.7957668322596,
                22.42969197372902
              ],
              [
                76.79489182396978,
                22.42911186063081
              ],
              [
                76.793593407153,
                22.4281797216888
              ],
              [
                76.7921123295358,
                22.42687313159584
              ],
              [
                76.79081742399892,
                22.42564292396806
              ],
              [
                76.78950392863695,
                22.42371698653146
              ],
              [
                76.78874974452688,
                22.42194571975051
              ],
              [
                76.78831858078964,
                22.41858515392733
              ],
              [
                76.78813982537156,
                22.41671911359519
              ],
              [
                76.78822548565292,
                22.41510430322285
              ],
              [
                76.78830390003363,
                22.41411083249475
              ],
              [
                76.78858134447577,
                22.41324364927227
              ],
              [
                76.78878788445498,
                22.41278906481655
              ],
              [
                76.78952557597482,
                22.41309704947659
              ],
              [
                76.79186203774422,
                22.41322876544096
              ],
              [
                76.79342352343517,
                22.4133167742858
              ],
              [
                76.79510774555823,
                22.41300538463173
              ],
              [
                76.79512110528184,
                22.41300291451127
              ],
              [
                76.79675104014093,
                22.41270154369728
              ],
              [
                76.7981295821825,
                22.4117347470029
              ],
              [
                76.80072331731598,
                22.40840870038307
              ],
              [
                76.80107681111345,
                22.40795538545958
              ],
              [
                76.80516490187979,
                22.40953745596647
              ],
              [
                76.80697126796564,
                22.41050426835732
              ],
              [
                76.80825473818255,
                22.41296521410999
              ],
              [
                76.8090575908963,
                22.41324354314979
              ],
              [
                76.81053646438603,
                22.4137562228037
              ],
              [
                76.81159235475604,
                22.41375623272477
              ],
              [
                76.81467209142993,
                22.41375622268928
              ],
              [
                76.81414919583786,
                22.41617316671265
              ],
              [
                76.81334108527864,
                22.41924921722903
              ],
              [
                76.81300833287499,
                22.42201760325834
              ],
              [
                76.81600309797695,
                22.42518140617738
              ],
              [
                76.81752424756343,
                22.42636781394991
              ],
              [
                76.81500484243843,
                22.42711480523922
              ],
              [
                76.81371601906179,
                22.42900351497301
              ],
              [
                76.8131028534045,
                22.42990206212391
              ],
              [
                76.81279832072995,
                22.43152440615122
              ],
              [
                76.81269508983809,
                22.43320079860384
              ],
              [
                76.812769117324,
                22.43405021520219
              ],
              [
                76.81279917056992,
                22.43439505479585
              ],
              [
                76.81284535497838,
                22.43492498845923
              ],
              [
                76.8128534038417,
                22.43501733841393
              ]
            ]
          ]
        ]
      }
    }
  ]
}